{"type": "FeatureCollection", "features": [ {"type": "Feature", "properties": {"norad_id": 30035, "name": "FENGYUN 1C DEB", "group": "fengyun-1c-debris", "lat": -68.0027143638791, "lon": 56.14607596692715, "alt_km": 858.2012114851641, "timestamp": "2025-12-11T07:02:24.003483+00:00", "meta": {"OBJECT_NAME": "FENGYUN 1C DEB", "OBJECT_ID": "1999-025NL", "EPOCH": "2025-12-10T18:17:47.935968", "MEAN_MOTION": 14.36973226, "ECCENTRICITY": 0.01156391, "INCLINATION": 99.2706, "RA_OF_ASC_NODE": 259.4232, "ARG_OF_PERICENTER": 67.6424, "MEAN_ANOMALY": 317.1357, "EPHEMERIS_TYPE": 0, "CLASSIFICATION_TYPE": "U", "NORAD_CAT_ID": 30035, "ELEMENT_SET_NO": 999, "REV_AT_EPOCH": 99095, "BSTAR": 0.00012040484, "MEAN_MOTION_DOT": 3.32e-06, "MEAN_MOTION_DDOT": 0}, "tle": {"line1": "1 30035U 99025NL  25344.76236037  .00000332  00000+0  12040-3 0  9995", "line2": "2 30035  99.2706 259.4232 0115639  67.6424 317.1357 14.36973226990959"}}, "geometry": {"type": "Point", "coordinates": [56.14607596692715, -68.0027143638791]}}, {"type": "Feature", "properties": {"norad_id": 30036, "name": "FENGYUN 1C DEB", "group": "fengyun-1c-debris", "lat": -63.03929264896822, "lon": 29.006052863976993, "alt_km": 728.1862043662959, "timestamp": "2025-12-11T07:02:24.003493+00:00", "meta": {"OBJECT_NAME": "FENGYUN 1C DEB", "OBJECT_ID": "1999-025NM", "EPOCH": "2025-12-10T13:47:14.539776", "MEAN_MOTION": 14.46168527, "ECCENTRICITY": 0.0189865, "INCLINATION": 98.253, "RA_OF_ASC_NODE": 11.7267, "ARG_OF_PERICENTER": 214.2216, "MEAN_ANOMALY": 299.085, "EPHEMERIS_TYPE": 0, "CLASSIFICATION_TYPE": "U", "NORAD_CAT_ID": 30036, "ELEMENT_SET_NO": 999, "REV_AT_EPOCH": 99145, "BSTAR": 0.0006467, "MEAN_MOTION_DOT": 2.841e-05, "MEAN_MOTION_DDOT": 0}, "tle": {"line1": "1 30036U 99025NM  25344.57447384  .00002841  00000+0  64670-3 0  9997", "line2": "2 30036  98.2530  11.7267 0189865 214.2216 299.0850 14.46168527991455"}}, "geometry": {"type": "Point", "coordinates": [29.006052863976993, -63.03929264896822]}}, {"type": "Feature", "properties": {"norad_id": 30037, "name": "FENGYUN 1C DEB", "group": "fengyun-1c-debris", "lat": 29.236091729291037, "lon": -43.68061830130082, "alt_km": 667.4702187743196, "timestamp": "2025-12-11T07:02:24.003503+00:00", "meta": {"OBJECT_NAME": "FENGYUN 1C DEB", "OBJECT_ID": "1999-025NN", "EPOCH": "2025-12-09T10:22:55.253280", "MEAN_MOTION": 14.34111274, "ECCENTRICITY": 0.01745574, "INCLINATION": 98.3831, "RA_OF_ASC_NODE": 319.2486, "ARG_OF_PERICENTER": 64.8781, "MEAN_ANOMALY": 84.6299, "EPHEMERIS_TYPE": 0, "CLASSIFICATION_TYPE": "U", "NORAD_CAT_ID": 30037, "ELEMENT_SET_NO": 999, "REV_AT_EPOCH": 98740, "BSTAR": 0.00035366107, "MEAN_MOTION_DOT": 1.128e-05, "MEAN_MOTION_DDOT": 0}, "tle": {"line1": "1 30037U 99025NN  25343.43258395  .00001128  00000+0  35366-3 0  9991", "line2": "2 30037  98.3831 319.2486 0174557  64.8781  84.6299 14.34111274987407"}}, "geometry": {"type": "Point", "coordinates": [-43.68061830130082, 29.236091729291037]}}, {"type": "Feature", "properties": {"norad_id": 30038, "name": "FENGYUN 1C DEB", "group": "fengyun-1c-debris", "lat": 31.39096602857436, "lon": -32.19797808558369, "alt_km": 707.7872015516732, "timestamp": "2025-12-11T07:02:24.003513+00:00", "meta": {"OBJECT_NAME": "FENGYUN 1C DEB", "OBJECT_ID": "1999-025NP", "EPOCH": "2025-12-10T11:26:00.960000", "MEAN_MOTION": 14.39286938, "ECCENTRICITY": 0.02579761, "INCLINATION": 98.3683, "RA_OF_ASC_NODE": 332.1568, "ARG_OF_PERICENTER": 109.5791, "MEAN_ANOMALY": 14.6964, "EPHEMERIS_TYPE": 0, "CLASSIFICATION_TYPE": "U", "NORAD_CAT_ID": 30038, "ELEMENT_SET_NO": 999, "REV_AT_EPOCH": 98858, "BSTAR": 0.00031463385, "MEAN_MOTION_DOT": 1.393e-05, "MEAN_MOTION_DDOT": 0}, "tle": {"line1": "1 30038U 99025NP  25344.47640000  .00001393  00000+0  31463-3 0  9993", "line2": "2 30038  98.3683 332.1568 0257976 109.5791  14.6964 14.39286938988580"}}, "geometry": {"type": "Point", "coordinates": [-32.19797808558369, 31.39096602857436]}}, {"type": "Feature", "properties": {"norad_id": 30040, "name": "FENGYUN 1C DEB", "group": "fengyun-1c-debris", "lat": 7.0618267592288655, "lon": -177.23728679703265, "alt_km": 788.9375697505111, "timestamp": "2025-12-11T07:02:24.003523+00:00", "meta": {"OBJECT_NAME": "FENGYUN 1C DEB", "OBJECT_ID": "1999-025NR", "EPOCH": "2025-12-10T12:33:56.945664", "MEAN_MOTION": 14.37082211, "ECCENTRICITY": 0.00323067, "INCLINATION": 98.2346, "RA_OF_ASC_NODE": 0.9981, "ARG_OF_PERICENTER": 319.823, "MEAN_ANOMALY": 193.096, "EPHEMERIS_TYPE": 0, "CLASSIFICATION_TYPE": "U", "NORAD_CAT_ID": 30040, "ELEMENT_SET_NO": 999, "REV_AT_EPOCH": 97896, "BSTAR": 0.0025325386, "MEAN_MOTION_DOT": 7.53e-05, "MEAN_MOTION_DDOT": 0}, "tle": {"line1": "1 30040U 99025NR  25344.52357576  .00007530  00000+0  25325-2 0  9993", "line2": "2 30040  98.2346   0.9981 0032306 319.8230 193.0960 14.37082211978964"}}, "geometry": {"type": "Point", "coordinates": [-177.23728679703265, 7.0618267592288655]}}, {"type": "Feature", "properties": {"norad_id": 30041, "name": "FENGYUN 1C DEB", "group": "fengyun-1c-debris", "lat": -58.93795755662945, "lon": -104.37305422643443, "alt_km": 831.8200040864776, "timestamp": "2025-12-11T07:02:24.003533+00:00", "meta": {"OBJECT_NAME": "FENGYUN 1C DEB", "OBJECT_ID": "1999-025NS", "EPOCH": "2025-12-10T18:46:59.170656", "MEAN_MOTION": 14.13180026, "ECCENTRICITY": 0.00347459, "INCLINATION": 99.467, "RA_OF_ASC_NODE": 91.1693, "ARG_OF_PERICENTER": 222.5613, "MEAN_ANOMALY": 300.7639, "EPHEMERIS_TYPE": 0, "CLASSIFICATION_TYPE": "U", "NORAD_CAT_ID": 30041, "ELEMENT_SET_NO": 999, "REV_AT_EPOCH": 97259, "BSTAR": 0.00075392281, "MEAN_MOTION_DOT": 1.369e-05, "MEAN_MOTION_DDOT": 0}, "tle": {"line1": "1 30041U 99025NS  25344.78262929  .00001369  00000+0  75392-3 0  9993", "line2": "2 30041  99.4670  91.1693 0034745 222.5613 300.7639 14.13180026972594"}}, "geometry": {"type": "Point", "coordinates": [-104.37305422643443, -58.93795755662945]}}, {"type": "Feature", "properties": {"norad_id": 30043, "name": "FENGYUN 1C DEB", "group": "fengyun-1c-debris", "lat": -21.814329832658725, "lon": -100.20633624999256, "alt_km": 733.39578695212, "timestamp": "2025-12-11T07:02:24.003543+00:00", "meta": {"OBJECT_NAME": "FENGYUN 1C DEB", "OBJECT_ID": "1999-025NU", "EPOCH": "2025-12-10T18:18:37.939968", "MEAN_MOTION": 14.23548856, "ECCENTRICITY": 0.02837129, "INCLINATION": 98.6271, "RA_OF_ASC_NODE": 82.7566, "ARG_OF_PERICENTER": 136.7101, "MEAN_ANOMALY": 225.6755, "EPHEMERIS_TYPE": 0, "CLASSIFICATION_TYPE": "U", "NORAD_CAT_ID": 30043, "ELEMENT_SET_NO": 999, "REV_AT_EPOCH": 97317, "BSTAR": 0.0016720367, "MEAN_MOTION_DOT": 5.727e-05, "MEAN_MOTION_DDOT": 0}, "tle": {"line1": "1 30043U 99025NU  25344.76293912  .00005727  00000+0  16720-2 0  9990", "line2": "2 30043  98.6271  82.7566 0283712 136.7101 225.6755 14.23548856973176"}}, "geometry": {"type": "Point", "coordinates": [-100.20633624999256, -21.814329832658725]}}, {"type": "Feature", "properties": {"norad_id": 30044, "name": "FENGYUN 1C DEB", "group": "fengyun-1c-debris", "lat": -56.66748011560256, "lon": -81.69531513507467, "alt_km": 767.1032715917736, "timestamp": "2025-12-11T07:02:24.003553+00:00", "meta": {"OBJECT_NAME": "FENGYUN 1C DEB", "OBJECT_ID": "1999-025NV", "EPOCH": "2025-12-10T08:07:56.549280", "MEAN_MOTION": 14.5060507, "ECCENTRICITY": 0.00792756, "INCLINATION": 98.2112, "RA_OF_ASC_NODE": 264.6909, "ARG_OF_PERICENTER": 174.7468, "MEAN_ANOMALY": 185.4577, "EPHEMERIS_TYPE": 0, "CLASSIFICATION_TYPE": "U", "NORAD_CAT_ID": 30044, "ELEMENT_SET_NO": 999, "REV_AT_EPOCH": 98004, "BSTAR": 0.0025793667, "MEAN_MOTION_DOT": 0.00010503, "MEAN_MOTION_DDOT": 0}, "tle": {"line1": "1 30044U 99025NV  25344.33884895  .00010503  00000+0  25794-2 0  9999", "line2": "2 30044  98.2112 264.6909 0079275 174.7468 185.4577 14.50605070980045"}}, "geometry": {"type": "Point", "coordinates": [-81.69531513507467, -56.66748011560256]}}, {"type": "Feature", "properties": {"norad_id": 30045, "name": "FENGYUN 1C DEB", "group": "fengyun-1c-debris", "lat": -73.55967168379536, "lon": 167.57773747758918, "alt_km": 878.4835059430461, "timestamp": "2025-12-11T07:02:24.003563+00:00", "meta": {"OBJECT_NAME": "FENGYUN 1C DEB", "OBJECT_ID": "1999-025NW", "EPOCH": "2025-12-10T01:25:04.970784", "MEAN_MOTION": 14.21564555, "ECCENTRICITY": 0.00949481, "INCLINATION": 99.1786, "RA_OF_ASC_NODE": 19.5201, "ARG_OF_PERICENTER": 120.9197, "MEAN_ANOMALY": 301.6886, "EPHEMERIS_TYPE": 0, "CLASSIFICATION_TYPE": "U", "NORAD_CAT_ID": 30045, "ELEMENT_SET_NO": 999, "REV_AT_EPOCH": 96650, "BSTAR": 0.0026668792, "MEAN_MOTION_DOT": 6.075e-05, "MEAN_MOTION_DDOT": 0}, "tle": {"line1": "1 30045U 99025NW  25344.05908531  .00006075  00000+0  26669-2 0  9994", "line2": "2 30045  99.1786  19.5201 0094948 120.9197 301.6886 14.21564555966501"}}, "geometry": {"type": "Point", "coordinates": [167.57773747758918, -73.55967168379536]}}, {"type": "Feature", "properties": {"norad_id": 30047, "name": "FENGYUN 1C DEB", "group": "fengyun-1c-debris", "lat": -24.743605177183944, "lon": 146.80373515273646, "alt_km": 828.1807308165126, "timestamp": "2025-12-11T07:02:24.003573+00:00", "meta": {"OBJECT_NAME": "FENGYUN 1C DEB", "OBJECT_ID": "1999-025NY", "EPOCH": "2025-12-10T08:54:30.701088", "MEAN_MOTION": 13.94348696, "ECCENTRICITY": 0.01256287, "INCLINATION": 99.9192, "RA_OF_ASC_NODE": 141.1885, "ARG_OF_PERICENTER": 329.1224, "MEAN_ANOMALY": 59.2335, "EPHEMERIS_TYPE": 0, "CLASSIFICATION_TYPE": "U", "NORAD_CAT_ID": 30047, "ELEMENT_SET_NO": 999, "REV_AT_EPOCH": 95883, "BSTAR": 0.00097454556, "MEAN_MOTION_DOT": 1.333e-05, "MEAN_MOTION_DDOT": 0}, "tle": {"line1": "1 30047U 99025NY  25344.37118867  .00001333  00000+0  97455-3 0  9990", "line2": "2 30047  99.9192 141.1885 0125628 329.1224  59.2335 13.94348696958833"}}, "geometry": {"type": "Point", "coordinates": [146.80373515273646, -24.743605177183944]}}]}